*******************************************************************************
JPL/HORIZONS              452 Hamiltonia (A899 XB)         2023-Sep-04 11:06:25
Rec #:     452 (+COV) Soln.date: 2023-Aug-23_19:15:15   # obs: 4031 (1899-2023)
 
IAU76/J2000 helio. ecliptic osc. elements (au, days, deg., period=Julian yrs):
 
  EPOCH=  2457502.5 ! 2016-Apr-24.00 (TDB)         Residual RMS= .24739
   EC= .01458889702019107  QR= 2.806487278857292   TP= 2457558.2239454696
   OM= 92.54953502871922   W=  70.55495567610106   IN= 3.223904547506882
   A= 2.848036997320901    MA= 348.5731245837688   ADIST= 2.88958671578451
   PER= 4.80647            N= .20506221            ANGMOM= .029027393
   DAN= 2.83367            DDN= 2.86133            L= 163.0759858
   B= 3.039839             MOID= 1.81445003        TP= 2016-Jun-18.7239454696
 
Asteroid physical parameters (km, seconds, rotational period in hours):
   GM= n.a.                RAD= 5.7815             ROTPER= 2.8813
   H= 11.91                G= .150                 B-V= n.a.
                           ALBEDO= .252            STYP= n.a.

ASTEROID comments: 
1: soln ref.= JPL#62, OCC=0
2: source=ORB
*******************************************************************************


*******************************************************************************
Ephemeris / API_USER Mon Sep  4 11:06:25 2023 Pasadena, USA      / Horizons
*******************************************************************************
Target body name: 452 Hamiltonia (A899 XB)        {source: JPL#62}
Center body name: Solar System Barycenter (0)     {source: DE441}
Center-site name: BODY CENTER
*******************************************************************************
Start time      : A.D. 2023-Aug-12 00:00:00.0000 TDB
Stop  time      : A.D. 2023-Aug-13 00:00:00.0000 TDB
Step-size       : 2880 minutes
*******************************************************************************
Center geodetic : 0.0, 0.0, 0.0                   {E-lon(deg),Lat(deg),Alt(km)}
Center cylindric: 0.0, 0.0, 0.0                   {E-lon(deg),Dxy(km),Dz(km)}
Center radii    : (undefined)
Small perturbers: Yes                             {source: SB441-N16}
Output units    : KM-S
Calendar mode   : Mixed Julian/Gregorian
Output type     : GEOMETRIC cartesian states
Output format   : 2 (position and velocity)
Reference frame : Ecliptic of J2000.0
*******************************************************************************
Initial IAU76/J2000 heliocentric ecliptic osculating elements (au, days, deg.):
  EPOCH=  2457502.5 ! 2016-Apr-24.00 (TDB)         Residual RMS= .24739        
   EC= .01458889702019107  QR= 2.806487278857292   TP= 2457558.2239454696      
   OM= 92.54953502871922   W=  70.55495567610106   IN= 3.223904547506882       
  Equivalent ICRF heliocentric cartesian coordinates (au, au/d):
   X=-2.459596808239430E+00  Y= 1.181751821459736E+00  Z= 6.595278297962832E-01
  VX=-4.924002148991557E-03 VY=-8.456630200865907E-03 VZ=-3.339579800819195E-03
Asteroid physical parameters (km, seconds, rotational period in hours):        
   GM= n.a.                RAD= 5.7815             ROTPER= 2.8813              
   H= 11.91                G= .150                 B-V= n.a.                   
                           ALBEDO= .252            STYP= n.a.                  
*******************************************************************************
JDTDB
   X     Y     Z
   VX    VY    VZ
*******************************************************************************
$$SOE
2460168.500000000 = A.D. 2023-Aug-12 00:00:00.0000 TDB 
 X = 3.995165669459161E+08 Y =-1.588458427002910E+08 Z =-2.214504228425894E+07
 VX= 6.364553948879375E+00 VY= 1.619317422213699E+01 VZ=-3.971572189822874E-01
$$EOE
*******************************************************************************
 
TIME

  Barycentric Dynamical Time ("TDB" or T_eph) output was requested. This
continuous coordinate time is equivalent to the relativistic proper time
of a clock at rest in a reference frame co-moving with the solar system
barycenter but outside the system's gravity well. It is the independent
variable in the solar system relativistic equations of motion.

  TDB runs at a uniform rate of one SI second per second and is independent
of irregularities in Earth's rotation.
 
CALENDAR SYSTEM

  Mixed calendar mode was active such that calendar dates after AD 1582-Oct-15
(if any) are in the modern Gregorian system. Dates prior to 1582-Oct-5 (if any)
are in the Julian calendar system, which is automatically extended for dates
prior to its adoption on 45-Jan-1 BC.  The Julian calendar is useful for
matching historical dates. The Gregorian calendar more accurately corresponds
to the Earth's orbital motion and seasons. A "Gregorian-only" calendar mode is
available if such physical events are the primary interest.

REFERENCE FRAME AND COORDINATES

  Ecliptic at the standard reference epoch

    Reference epoch: J2000.0
    X-Y plane: adopted Earth orbital plane at the reference epoch
               Note: IAU76 obliquity of 84381.448 arcseconds wrt ICRF X-Y plane
    X-axis   : ICRF
    Z-axis   : perpendicular to the X-Y plane in the directional (+ or -) sense
               of Earth's north pole at the reference epoch.

  Symbol meaning:

    JDTDB    Julian Day Number, Barycentric Dynamical Time
      X      X-component of position vector (km)
      Y      Y-component of position vector (km)
      Z      Z-component of position vector (km)
      VX     X-component of velocity vector (km/sec)                           
      VY     Y-component of velocity vector (km/sec)                           
      VZ     Z-component of velocity vector (km/sec)                           

ABERRATIONS AND CORRECTIONS

 Geometric state vectors have NO corrections or aberrations applied.

Computations by ...

    Solar System Dynamics Group, Horizons On-Line Ephemeris System
    4800 Oak Grove Drive, Jet Propulsion Laboratory
    Pasadena, CA  91109   USA

    General site: https://ssd.jpl.nasa.gov/
    Mailing list: https://ssd.jpl.nasa.gov/email_list.html
    System news : https://ssd.jpl.nasa.gov/horizons/news.html
    User Guide  : https://ssd.jpl.nasa.gov/horizons/manual.html
    Connect     : browser        https://ssd.jpl.nasa.gov/horizons/app.html#/x
                  API            https://ssd-api.jpl.nasa.gov/doc/horizons.html
                  command-line   telnet ssd.jpl.nasa.gov 6775
                  e-mail/batch   https://ssd.jpl.nasa.gov/ftp/ssd/hrzn_batch.txt
                  scripts        https://ssd.jpl.nasa.gov/ftp/ssd/SCRIPTS
    Author      : Jon.D.Giorgini@jpl.nasa.gov
*******************************************************************************
